STARLINK-37701          
1 69306U 26119L   26168.50003471 -.02522308  00000+0 -27251-1 0  9997
2 69306  97.2836 194.3480 0001788  97.1124  94.0559 15.67004517  4099
STARLINK-37732          
1 69307U 26119M   26168.50003471 -.02475367  00000+0 -21207-1 0  9995
2 69307  97.2838 194.3697 0001687 104.1012 136.7804 15.73108145  4091
STARLINK-37689          
1 69308U 26119N   26168.50003471  .00088669  00000+0  16146-2 0  9994
2 69308  97.2889 194.1713 0000821  65.2777  70.9707 15.49173678  4096
STARLINK-37619          
1 69309U 26119P   26168.50003471 -.02526338  00000+0 -23384-1 0  9990
2 69309  97.2838 194.3681 0001655 100.1169 137.1452 15.70748162  4090
STARLINK-37794          
1 69310U 26119Q   26168.50003471 -.02220974  00000+0 -33860-1 0  9999
2 69310  97.2850 194.3144 0002270  94.7440   7.7418 15.57753032  4095
STARLINK-37795          
1 69311U 26119R   26168.50003471  .00110186  00000+0  20018-2 0  9991
2 69311  97.2844 194.1834 0000592  83.9207  77.7496 15.49154836  4090
STARLINK-37790          
1 69312U 26119S   26168.50003471 -.02503448  00000+0 -29080-1 0  9990
2 69312  97.2839 194.3547 0001848 104.2572 101.8661 15.65182797  4093
STARLINK-37676          
1 69313U 26119T   26168.50003471 -.02431419  00000+0 -19835-1 0  9996
2 69313  97.2836 194.3898 0001468  99.4901 188.0891 15.74168749  4092
STARLINK-37617          
1 69314U 26119U   26168.50003471 -.02332002  00000+0 -27008-1 0  9996
2 69314  97.2843 194.3598 0001768  95.3737 113.1477 15.65006835  4099
STARLINK-37627          
1 69315U 26119V   26168.50003471 -.02520342  00000+0 -28996-1 0  9990
2 69315  97.2840 194.3655 0001807 104.4190 127.1720 15.65447808  4095
STARLINK-37738          
1 69316U 26119W   26168.50003471 -.01455609  00000+0 -17370-1 0  9997
2 69316  97.2845 194.3565 0001422  81.2065 121.2599 15.63805422  4094
STARLINK-37799          
1 69317U 26119X   26168.50003471 -.02396205  00000+0 -17071-1 0  9993
2 69317  97.2842 194.3928 0001261 116.5083 179.3647 15.77185590  4043
STARLINK-37802          
1 69318U 26119Y   26168.50003471 -.02483598  00000+0 -22431-1 0  9992
2 69318  97.2845 194.3896 0001460 104.2133 178.7602 15.71273750  4091
STARLINK-37803          
1 69319U 26119Z   26168.50003471 -.00617384  00000+0 -92043-2 0  9990
2 69319  97.2846 194.3127 0001021  65.5980  34.1386 15.57116548  4046
GUOWANG TEST OBJECT A   
1 69320U 26120A   26158.46264223  .00009002  00000+0  24096-3 0  9996
2 69320  54.9967  71.5399 0009599 294.3963  65.6063 15.38803685  1198
GUOWANG TEST OBJECT B   
1 69321U 26120B   26168.00875735  .00008236  00000+0  22202-3 0  9999
2 69321  54.9984  28.5393 0010110 330.2377  29.8075 15.38703032  2667
GUOWANG TEST OBJECT C   
1 69322U 26120C   26158.91389784  .00016153  00000+0  41736-3 0  9993
2 69322  54.9968  69.4792 0009850 309.3319  50.6835 15.39284097  1266
GUOWANG TEST OBJECT D   
1 69323U 26120D   26167.35516612  .00001852  00000+0  57263-4 0  9997
2 69323  54.9990  31.4391 0011112 342.7076  17.3573 15.39015221  2565
QIANFAN-163             
1 69325U 26121A   26168.37294464  .00000014  00000+0  29629-5 0  9996
2 69325  89.0147 300.4966 0020103 188.4011 171.6812 13.59758182  2189
QIANFAN-164             
1 69326U 26121B   26162.41240743  .00000112  00000+0  13228-3 0  9992
2 69326  89.0157 301.0998 0019383 205.3125 154.7084 13.60355109  1373
SZ-22 MODULE            
1 69328U 25272C   26167.85575198  .00018201  00000+0  22051-3 0  9990
2 69328  41.4806 324.1231 0006297  83.9376 276.2180 15.60203853  3270
STARLINK-37733          
1 69329U 26122A   26168.47998978  .00179791  00000+0  91746-3 0  9999
2 69329  97.2826 197.9382 0000267  68.2036 291.9260 15.80880279  2205
STARLINK-37772          
1 69330U 26122B   26168.41139683  .01022105  00000+0  46306-2 0  9993
2 69330  97.2823 197.8786 0002383 278.3477  81.7521 15.81328416  2199
STARLINK-37768          
1 69331U 26122C   26168.50003471 -.02445301  00000+0 -20655-1 0  9997
2 69331  97.2837 197.9682 0001446  83.8366  50.8113 15.73389261  3355
STARLINK-37833          
1 69332U 26122D   26168.47260345  .00007109  00000+0  37900-4 0  9999
2 69332  97.2825 197.9486 0001291  39.5757 320.5605 15.80772068  2200
STARLINK-37818          
1 69333U 26122E   26168.34801882 -.00757161  00000+0 -44633-2 0  9994
2 69333  97.2822 197.8120 0000957 163.0906 197.0394 15.80040347  2186
STARLINK-37868          
1 69334U 26122F   26168.50003471 -.00699800  00000+0 -39177-2 0  9993
2 69334  97.2832 197.9910 0001319 107.7369  79.5992 15.81018137  3404
STARLINK-37877          
1 69335U 26122G   26168.50003471 -.02506624  00000+0 -23560-1 0  9995
2 69335  97.2838 197.9743 0001763  87.6849  64.2182 15.70354134  3407
STARLINK-37791          
1 69336U 26122H   26168.50003471 -.02430476  00000+0 -16345-1 0  9990
2 69336  97.2832 197.9936 0001506 109.3488  85.8747 15.78514931  3409
