OBJECT_NAME,OBJECT_ID,EPOCH,MEAN_MOTION,ECCENTRICITY,INCLINATION,RA_OF_ASC_NODE,ARG_OF_PERICENTER,MEAN_ANOMALY,EPHEMERIS_TYPE,CLASSIFICATION_TYPE,NORAD_CAT_ID,ELEMENT_SET_NO,REV_AT_EPOCH,BSTAR,MEAN_MOTION_DOT,MEAN_MOTION_DDOT
STARLINK-37701,2026-119L,2026-06-17T12:00:02.998944,15.67004517,.0001788,97.2836,194.3480,97.1124,94.0559,0,U,69306,999,409,-.27251E-1,-.2522308E-1,0
STARLINK-37732,2026-119M,2026-06-17T12:00:02.998944,15.73108145,.0001687,97.2838,194.3697,104.1012,136.7804,0,U,69307,999,409,-.21207E-1,-.2475367E-1,0
STARLINK-37689,2026-119N,2026-06-17T12:00:02.998944,15.49173678,.0000821,97.2889,194.1713,65.2777,70.9707,0,U,69308,999,409,.16146E-2,.88669E-3,0
STARLINK-37619,2026-119P,2026-06-17T12:00:02.998944,15.70748162,.0001655,97.2838,194.3681,100.1169,137.1452,0,U,69309,999,409,-.23384E-1,-.2526338E-1,0
STARLINK-37794,2026-119Q,2026-06-17T12:00:02.998944,15.57753032,.000227,97.2850,194.3144,94.7440,7.7418,0,U,69310,999,409,-.3386E-1,-.2220974E-1,0
STARLINK-37795,2026-119R,2026-06-17T12:00:02.998944,15.49154836,.0000592,97.2844,194.1834,83.9207,77.7496,0,U,69311,999,409,.20018E-2,.110186E-2,0
STARLINK-37790,2026-119S,2026-06-17T12:00:02.998944,15.65182797,.0001848,97.2839,194.3547,104.2572,101.8661,0,U,69312,999,409,-.2908E-1,-.2503448E-1,0
STARLINK-37676,2026-119T,2026-06-17T12:00:02.998944,15.74168749,.0001468,97.2836,194.3898,99.4901,188.0891,0,U,69313,999,409,-.19835E-1,-.2431419E-1,0
STARLINK-37617,2026-119U,2026-06-17T12:00:02.998944,15.65006835,.0001768,97.2843,194.3598,95.3737,113.1477,0,U,69314,999,409,-.27008E-1,-.2332002E-1,0
STARLINK-37627,2026-119V,2026-06-17T12:00:02.998944,15.65447808,.0001807,97.2840,194.3655,104.4190,127.1720,0,U,69315,999,409,-.28996E-1,-.2520342E-1,0
STARLINK-37738,2026-119W,2026-06-17T12:00:02.998944,15.63805422,.0001422,97.2845,194.3565,81.2065,121.2599,0,U,69316,999,409,-.1737E-1,-.1455609E-1,0
STARLINK-37799,2026-119X,2026-06-17T12:00:02.998944,15.77185590,.0001261,97.2842,194.3928,116.5083,179.3647,0,U,69317,999,404,-.17071E-1,-.2396205E-1,0
STARLINK-37802,2026-119Y,2026-06-17T12:00:02.998944,15.71273750,.000146,97.2845,194.3896,104.2133,178.7602,0,U,69318,999,409,-.22431E-1,-.2483598E-1,0
STARLINK-37803,2026-119Z,2026-06-17T12:00:02.998944,15.57116548,.0001021,97.2846,194.3127,65.5980,34.1386,0,U,69319,999,404,-.92043E-2,-.617384E-2,0
GUOWANG TEST OBJECT A,2026-120A,2026-06-07T11:06:12.288672,15.38803685,.00095994,54.9967,71.5399,294.3963,65.6063,0,U,69320,999,119,.24095813E-3,.9002E-4,0
GUOWANG TEST OBJECT B,2026-120B,2026-06-17T00:12:36.635040,15.38703032,.001011,54.9984,28.5393,330.2377,29.8075,0,U,69321,999,266,.22202E-3,.8236E-4,0
GUOWANG TEST OBJECT C,2026-120C,2026-06-07T21:56:00.773376,15.39284097,.00098504,54.9968,69.4792,309.3319,50.6835,0,U,69322,999,126,.41735581E-3,.16153E-3,0
GUOWANG TEST OBJECT D,2026-120D,2026-06-16T08:31:26.352768,15.39015221,.00111128,54.9990,31.4391,342.7076,17.3573,0,U,69323,999,256,.57263237E-4,.1852E-4,0
QIANFAN-163,2026-121A,2026-06-17T08:57:02.416896,13.59758182,.0020103,89.0147,300.4966,188.4011,171.6812,0,U,69325,999,218,.29629E-5,.14E-6,0
QIANFAN-164,2026-121B,2026-06-11T09:53:52.001952,13.60355109,.0019383,89.0157,301.0998,205.3125,154.7084,0,U,69326,999,137,.13228E-3,.112E-5,0
SZ-22 MODULE,2025-272C,2026-06-16T20:32:16.971072,15.60203853,.0006297,41.4806,324.1231,83.9376,276.2180,0,U,69328,999,327,.22051E-3,.18201E-3,0
STARLINK-37733,2026-122A,2026-06-17T11:31:11.116992,15.80880279,.0000267,97.2826,197.9382,68.2036,291.9260,0,U,69329,999,220,.91746E-3,.179791E-2,0
STARLINK-37772,2026-122B,2026-06-17T09:52:24.686112,15.81328416,.0002383,97.2823,197.8786,278.3477,81.7521,0,U,69330,999,219,.46306E-2,.1022105E-1,0
STARLINK-37768,2026-122C,2026-06-17T12:00:02.998944,15.73389261,.0001446,97.2837,197.9682,83.8366,50.8113,0,U,69331,999,335,-.20655E-1,-.2445301E-1,0
STARLINK-37833,2026-122D,2026-06-17T11:20:32.938080,15.80772068,.0001291,97.2825,197.9486,39.5757,320.5605,0,U,69332,999,220,.379E-4,.7109E-4,0
STARLINK-37818,2026-122E,2026-06-17T08:21:08.826048,15.80040347,.0000957,97.2822,197.8120,163.0906,197.0394,0,U,69333,999,218,-.44633E-2,-.757161E-2,0
STARLINK-37868,2026-122F,2026-06-17T12:00:02.998944,15.81018137,.0001319,97.2832,197.9910,107.7369,79.5992,0,U,69334,999,340,-.39177E-2,-.6998E-2,0
STARLINK-37877,2026-122G,2026-06-17T12:00:02.998944,15.70354134,.0001763,97.2838,197.9743,87.6849,64.2182,0,U,69335,999,340,-.2356E-1,-.2506624E-1,0
STARLINK-37791,2026-122H,2026-06-17T12:00:02.998944,15.78514931,.0001506,97.2832,197.9936,109.3488,85.8747,0,U,69336,999,340,-.16345E-1,-.2430476E-1,0
